TEMPEST-D               
1 43547U 98067NV  20112.79846087  .00006796  00000-0  82642-4 0  9992
2 43547  51.6365 237.7582 0004679 200.5194 159.5613 15.61864418100669
RAINCUBE                
1 43548U 98067NW  20113.16545065  .00038241  00000-0  29447-3 0  9990
2 43548  51.6337 218.3269 0003688 251.3576 108.7022 15.71592386101409
HALOSAT                 
1 43549U 98067NX  20113.01677781  .00032900  00000-0  25972-3 0  9991
2 43549  51.6363 219.6467 0003087 253.8121 106.2537 15.71076569100930
ENDUROSAT ONE           
1 43551U 98067NZ  20112.97990748  .00047757  00000-0  29278-3 0  9998
2 43551  51.6356 211.0628 0003906 278.5131  81.5427 15.76788893101451
EQUISAT                 
1 43552U 98067PA  20112.87844941  .00030904  00000-0  23842-3 0  9998
2 43552  51.6360 218.7622 0004341 255.9475 104.1040 15.71654756101301
AEROCUBE 12A            
1 43556U 18046C   20112.86218281  .00002064  00000-0  83177-4 0  9996
2 43556  51.6434  17.4430 0008859  92.4448 267.7547 15.29640897 98712
AEROCUBE 12B            
1 43557U 18046D   20113.17423721  .00001040  00000-0  48447-4 0  9993
2 43557  51.6439  16.5169 0008978  93.3825 266.8182 15.29381658 98709
UITMSAT-1               
1 43589U 98067PD  20113.43310144  .00046719  00000-0  32776-3 0  9991
2 43589  51.6321 214.8019 0004323 277.4481  82.6026 15.73693794 97148
MAYA-1                  
1 43590U 98067PE  20112.21947704  .00040474  00000-0  28605-3 0  9994
2 43590  51.6330 220.9576 0004292 270.8647  89.1860 15.73586918 96889
BHUTAN-1                
1 43591U 98067PF  20113.46664490  .00046921  00000-0  32756-3 0  9996
2 43591  51.6331 214.3425 0004509 277.4970  82.5516 15.73805902 97089
SIRIUSSAT-1             
1 43595U 98067PG  20113.18403227  .00040066  00000-0  30609-3 0  9997
2 43595  51.6330 219.9203 0001839 256.9689 103.1104 15.71763780 96165
SIRIUSSAT-2             
1 43596U 98067PH  20112.86052615  .00036867  00000-0  28385-3 0  9995
2 43596  51.6340 222.3294 0002062 242.6849 117.3939 15.71618615 96107
TANUSHA-3               
1 43597U 98067PJ  20113.15292527  .00083528  00000-0  45783-3 0  9994
2 43597  51.6304 211.3381 0003276 306.5708  53.4991 15.79073708 96277
SURFSAT                 
1 43614U 18070B   20112.77302784  .00003083  00000-0  80074-4 0  9995
2 43614  93.0209 131.1677 0014822 185.5061 174.6032 15.38922215 89763
CP7 (DAVE)              
1 43615U 18070C   20112.73432972  .00002627  00000-0  68532-4 0  9993
2 43615  93.0211 131.1452 0014996 185.3173 174.7924 15.38790050 89752
ELFIN-B                 
1 43616U 18070D   20112.82220399  .00003921  00000-0  98141-4 0  9999
2 43616  93.0173 131.1077 0015421 187.1128 172.9910 15.40020504 89801
ELFIN-A                 
1 43617U 18070E   20113.31669097  .00005274  00000-0  13124-3 0  9997
2 43617  93.0227 131.7774 0015012 181.3826 178.7390 15.40185394 89882
CUBEBEL-1 (BSUSAT-1)    
1 43666U 18083E   20113.55518330  .00001046  00000-0  54478-4 0  9995
2 43666  97.4944 140.5610 0014416 188.6627 322.7423 15.18153893 82136
DEBRISSAT-2             
1 43680U 98067PR  20113.47685746  .00226717  30298-4  67980-3 0  9999
2 43680  51.6303 201.4701 0007961 339.3965  20.6719 15.91823601105161
CICERO 10               
1 43690U 18088A   20112.55417444  .00000979  00000-0  43310-4 0  9997
2 43690  85.0344 115.8161 0015899 150.8692 209.3439 15.20147149 80095
IRVINE01                
1 43693U 18088D   20113.43768066  .00003043  00000-0  12852-3 0  9998
2 43693  85.0313 114.0896 0019722 132.0395 228.2530 15.22632515 80327
PROXIMA I               
1 43694U 18088E   20113.07146619  .00000936  00000-0  39127-4 0  9996
2 43694  85.0287 114.1479 0021135 126.5719 233.7472 15.21876272 80263
PROXIMA II              
1 43696U 18088G   20112.60950886  .00001018  00000-0  42715-4 0  9994
2 43696  85.0288 114.4565 0021135 128.0545 232.2609 15.21878532 80198
FACSAT-1                
1 43721U 18096C   20113.45061718  .00001589  00000-0  62445-4 0  9998
2 43721  97.4233 187.3239 0016534 325.0834  34.9319 15.27080899 77848
CENTAURI-2              
1 43722U 18096D   20112.83984792  .00002043  00000-0  78349-4 0  9992
2 43722  97.4244 186.9397 0016500 327.3418  32.6800 15.27557105 77756
INNOSAT-2               
1 43738U 18096V   20113.48352157  .00003744  00000-0  13041-3 0  9991
2 43738  97.4259 189.3207 0022453 331.7403  28.2618 15.30067956 77979
SIRION PATHFINDER-2     
1 43759U 18099B   20113.23225150  .00000118  00000-0  15904-4 0  9995
2 43759  97.7086 185.8414 0014677  17.4139 342.7582 14.95256536 75524
CORVUS-BC 4             
1 43767U 18099K   20112.75094475  .00000568  00000-0  57529-4 0  9992
2 43767  97.7068 184.8403 0012281  24.1555 336.0239 14.94699469 75436
MOVE-II                 
1 43780U 18099Y   20113.18258086  .00000144  00000-0  18283-4 0  9999
2 43780  97.7089 185.7088 0014075  28.7583 331.4411 14.95345699 75500
SPACEBEE-7              
1 43816U 18099BL  20112.46405709  .00000421  00000-0  43047-4 0  9999
2 43816  97.7101 185.3584 0013531  16.0723 344.0925 14.95645282 74975
SPACEBEE-5              
1 43817U 18099BM  20113.17528491  .00000718  00000-0  68766-4 0  9997
2 43817  97.7151 186.4189 0013230  14.7239 345.4365 14.96200930 75092
SPACEBEE-6              
1 43818U 18099BN  20112.83582789  .00000382  00000-0  39341-4 0  9994
2 43818  97.7119 185.8369 0013571  15.4321 344.7312 14.95823140 75185
SHIELDS 1               
1 43850U 18104B   20113.03085591  .00000041  00000-0  00000+0 0  9996
2 43850  85.0319 212.6349 0012625 280.4477  79.5367 15.21338954 74899
STF-1                   
1 43852U 18104D   20112.97327104  .00000041  00000-0  00000+0 0  9999
2 43852  85.0369 213.1758 0012542 297.1385  62.8620 15.21174597 74862
ZACUBE-2                
1 43907U 18111AH  20113.20336838  .00000693  00000-0  30870-4 0  9995
2 43907  97.2706  14.6470 0021152 347.1330  12.9366 15.24533531 73447
LUME 1                  
1 43908U 18111AJ  20113.47133464  .00001323  00000-0  55654-4 0  9993
2 43908  97.2705  15.0419 0020911 345.9759  14.0896 15.24935849 73492
AOBA VELOX-IV           
1 43940U 19003J   20113.15402624  .00002043  00000-0  84409-4 0  9992
2 43940  97.2342 166.3512 0025693  64.5417 357.6849 15.24815105 70073
CATSAT-2                
1 44029U 98067PV  20113.42081446  .00028557  00000-0  30575-3 0  9995
2 44029  51.6387 239.7167 0003887 238.8465 121.2149 15.63609703 69755
DELPHINI                
1 44030U 98067PW  20113.27865882  .00028406  00000-0  29501-3 0  9994
2 44030  51.6347 239.4294 0003846 240.0906 119.9707 15.64388784 69715
UNITE                   
1 44031U 98067PX  20112.77440952  .00012890  00000-0  16028-3 0  9996
2 44031  51.6372 247.3639 0002879 222.9298 137.1470 15.60343572 69567
TECHEDSAT 8             
1 44032U 98067PY  20111.15468586  .13178104  12516-4  85387-3 0  9999
2 44032  51.6107 221.1148 0008059 315.3167  44.7209 16.40789031 69743
CATSAT-1                
1 44033U 98067PZ  20112.90932383  .00021799  00000-0  23516-3 0  9995
2 44033  51.6384 242.3062 0003678 235.7271 124.3376 15.63586222 69587
RAAVANA-1               
1 44329U 98067QE  20113.43257432  .00015954  00000-0  22379-3 0  9999
2 44329  51.6388 254.8032 0006046 153.5149 206.6153 15.56901040 48278
UGUISU                  
1 44330U 98067QF  20113.12141428  .00012981  00000-0  18400-3 0  9991
2 44330  51.6383 256.4713 0006056 150.8841 209.2490 15.56815291 48207
NEPALISAT-1             
1 44331U 98067QG  20112.65575291  .00013439  00000-0  18965-3 0  9993
2 44331  51.6385 258.6144 0006096 151.8109 208.3214 15.56900023 48149
SPOOQY-1                
1 44332U 98067QH  20112.72027495  .00013280  00000-0  18801-3 0  9993
2 44332  51.6387 258.2921 0005083 154.1821 205.9425 15.56829525 48114
SPACEBEE-9              
1 44370U 19037F   20113.15282934  .00008480  00000-0  19773-3 0  9999
2 44370  45.0123  70.3635 0012572 219.5809 140.4169 15.42658058 45907
SPACEBEE-8              
1 44371U 19037G   20113.17171815  .00016485  00000-0  33496-3 0  9999
2 44371  45.0122  66.2919 0011198 222.5349 137.4685 15.46122757 45941
IOD-1 GEMS              
1 44385U 98067QK  20112.71835147  .00020098  00000-0  26314-3 0  9994
2 44385  51.6401 257.5714 0002260 111.7775 248.3458 15.58583338 45634
MOVE-IIB                
1 44398U 19038N   20113.44224627  .00001539  00000-0  92363-4 0  9992
2 44398  97.5312  75.4098 0024322 324.0728  35.8866 15.12211875 44118
SONATE                  
1 44400U 19038Q   20113.46416517  .00000564  00000-0  36587-4 0  9992
2 44400  97.5346  75.4499 0024247 322.0347  37.9173 15.11905675 44116
LUCKY-7                 
1 44406U 19038W   20112.89389352  .00000694  00000-0  43861-4 0  9997
2 44406  97.5339  74.9724 0023742 323.9021  36.0606 15.12156059 44023
BEESAT 9                
1 44412U 19038AC  20112.82893404  .00000958  00000-0  59006-4 0  9996
2 44412  97.5331  74.8896 0021993 330.5673  29.4318 15.12212616 43717
JAISAT-1                
1 44419U 19038F   20113.46263476  .00001098  00000-0  66235-4 0  9992
2 44419  97.5336  75.7368 0020761 327.8087  32.1875 15.12698299 44134
SWIATOWID               
1 44426U 98067QL  20113.54578238  .00021406  00000-0  27341-3 0  9992
2 44426  51.6395 253.1422 0002573 122.7356 328.6332 15.59198089 45789
KRAKSAT                 
1 44427U 98067QM  20113.12231180  .00009375  00000-0  14294-3 0  9993
2 44427  51.6403 258.7616 0003606 105.9411 254.1978 15.55220908 45713
VCC A                   
1 44428U 98067QN  20112.88955360  .00013129  00000-0  18968-3 0  9993
2 44428  51.6403 258.7108 0002725 126.7163 233.4079 15.56295878 45694
ENTRYSAT                
1 44429U 98067QP  20113.40476248  .00019254  00000-0  26675-3 0  9995
2 44429  51.6387 255.3844 0002319 119.8805 240.2417 15.57097283 45784
VCC C                   
1 44430U 98067QQ  20113.41582489  .00024244  00000-0  32279-3 0  9995
2 44430  51.6389 254.7192 0002184 135.4173 224.6996 15.58009475 44615
